ONEWEB-0411             
1 51623U 22012B   25289.12716176  .00000510  00000+0  14237-2 0  9995
2 51623  87.8753  84.9237 0002174 101.3050 258.8322 13.10369809177324
ONEWEB-0415             
1 51624U 22012C   25288.66569641  .00000586  00000+0  16426-2 0  9992
2 51624  87.8749  85.0178 0001936  96.8559 263.2788 13.10370718177263
ONEWEB-0416             
1 51625U 22012D   25289.13545211  .00000200  00000+0  53655-3 0  9992
2 51625  87.8750  84.9447 0001697  92.1162 268.0159 13.10367925177368
ONEWEB-0422             
1 51626U 22012E   25289.09262142 -.00000184  00000+0 -50701-3 0  9999
2 51626  87.9105  54.3845 0001568 123.9983 236.1297 13.17648202181662
ONEWEB-0423             
1 51627U 22012F   25288.63024811  .00000126  00000+0  29044-3 0  9998
2 51627  87.9105  54.4862 0001537  99.7005 260.4300 13.17647450181494
ONEWEB-0425             
1 51628U 22012G   25289.14540036 -.00000375  00000+0 -11101-2 0  9990
2 51628  87.8750  84.9120 0001496  81.3887 278.7410 13.10369149177368
ONEWEB-0428             
1 51629U 22012H   25289.12550177  .00000599  00000+0  16798-2 0  9999
2 51629  87.8751  84.9370 0001629  99.5360 260.5951 13.10370335177326
ONEWEB-0431             
1 51630U 22012J   25288.71368241 -.00000126  00000+0 -39590-3 0  9998
2 51630  87.8763  84.9939 0002150 105.7175 254.4190 13.10376767177328
ONEWEB-0434             
1 51631U 22012K   25289.14871541 -.00000486  00000+0 -14292-2 0  9999
2 51631  87.8755  84.9475 0001391  70.3224 289.8053 13.10369443177360
ONEWEB-0435             
1 51632U 22012L   25289.00429557 -.00000456  00000+0 -13427-2 0  9997
2 51632  87.8751  84.9672 0001488 107.1655 252.9636 13.10373032177334
ONEWEB-0436             
1 51633U 22012M   25288.77370072 -.00000098  00000+0 -28574-3 0  9990
2 51633  87.9102  54.4368 0001728 106.4852 253.6469 13.17649566181497
ONEWEB-0438             
1 51634U 22012N   25289.14042551 -.00000136  00000+0 -42718-3 0  9990
2 51634  87.8748  84.9406 0001546  86.9819 273.1485 13.10368563177383
ONEWEB-0439             
1 51635U 22012P   25289.14374220 -.00000313  00000+0 -93313-3 0  9996
2 51635  87.8751  84.9288 0001561  94.3960 265.7346 13.10368777177361
ONEWEB-0442             
1 51636U 22012Q   25289.06982660 -.00000380  00000+0 -10114-2 0  9992
2 51636  87.9096  54.4302 0001912  78.1581 281.9765 13.17647513181526
ONEWEB-0443             
1 51637U 22012R   25289.08924111 -.00000079  00000+0 -23725-3 0  9990
2 51637  87.9095  54.4328 0001413  92.0387 268.0906 13.17647062181576
ONEWEB-0444             
1 51638U 22012S   25289.13377207  .00000235  00000+0  63557-3 0  9994
2 51638  87.8749  84.9300 0001582  94.9306 265.2002 13.10367357177377
ONEWEB-0445             
1 51639U 22012T   25289.15534646 -.00000611  00000+0 -17877-2 0  9992
2 51639  87.8767  84.8841 0001772  89.4326 270.7005 13.10370330177389
