[{"OBJECT_NAME":"ONEWEB-0411","OBJECT_ID":"2022-012B","EPOCH":"2025-10-16T03:03:06.776064","MEAN_MOTION":13.10369809,"ECCENTRICITY":0.0002174,"INCLINATION":87.8753,"RA_OF_ASC_NODE":84.9237,"ARG_OF_PERICENTER":101.305,"MEAN_ANOMALY":258.8322,"EPHEMERIS_TYPE":0,"CLASSIFICATION_TYPE":"U","NORAD_CAT_ID":51623,"ELEMENT_SET_NO":999,"REV_AT_EPOCH":17732,"BSTAR":0.0014237,"MEAN_MOTION_DOT":5.1e-6,"MEAN_MOTION_DDOT":0},{"OBJECT_NAME":"ONEWEB-0415","OBJECT_ID":"2022-012C","EPOCH":"2025-10-15T15:58:36.169824","MEAN_MOTION":13.10370718,"ECCENTRICITY":0.0001936,"INCLINATION":87.8749,"RA_OF_ASC_NODE":85.0178,"ARG_OF_PERICENTER":96.8559,"MEAN_ANOMALY":263.2788,"EPHEMERIS_TYPE":0,"CLASSIFICATION_TYPE":"U","NORAD_CAT_ID":51624,"ELEMENT_SET_NO":999,"REV_AT_EPOCH":17726,"BSTAR":0.0016426,"MEAN_MOTION_DOT":5.86e-6,"MEAN_MOTION_DDOT":0},{"OBJECT_NAME":"ONEWEB-0416","OBJECT_ID":"2022-012D","EPOCH":"2025-10-16T03:15:03.062304","MEAN_MOTION":13.10367925,"ECCENTRICITY":0.0001697,"INCLINATION":87.875,"RA_OF_ASC_NODE":84.9447,"ARG_OF_PERICENTER":92.1162,"MEAN_ANOMALY":268.0159,"EPHEMERIS_TYPE":0,"CLASSIFICATION_TYPE":"U","NORAD_CAT_ID":51625,"ELEMENT_SET_NO":999,"REV_AT_EPOCH":17736,"BSTAR":0.00053655,"MEAN_MOTION_DOT":2.0e-6,"MEAN_MOTION_DDOT":0},{"OBJECT_NAME":"ONEWEB-0422","OBJECT_ID":"2022-012E","EPOCH":"2025-10-16T02:13:22.490688","MEAN_MOTION":13.17648202,"ECCENTRICITY":0.0001568,"INCLINATION":87.9105,"RA_OF_ASC_NODE":54.3845,"ARG_OF_PERICENTER":123.9983,"MEAN_ANOMALY":236.1297,"EPHEMERIS_TYPE":0,"CLASSIFICATION_TYPE":"U","NORAD_CAT_ID":51626,"ELEMENT_SET_NO":999,"REV_AT_EPOCH":18166,"BSTAR":-0.00050701,"MEAN_MOTION_DOT":-1.84e-6,"MEAN_MOTION_DDOT":0},{"OBJECT_NAME":"ONEWEB-0423","OBJECT_ID":"2022-012F","EPOCH":"2025-10-15T15:07:33.436704","MEAN_MOTION":13.1764745,"ECCENTRICITY":0.0001537,"INCLINATION":87.9105,"RA_OF_ASC_NODE":54.4862,"ARG_OF_PERICENTER":99.7005,"MEAN_ANOMALY":260.43,"EPHEMERIS_TYPE":0,"CLASSIFICATION_TYPE":"U","NORAD_CAT_ID":51627,"ELEMENT_SET_NO":999,"REV_AT_EPOCH":18149,"BSTAR":0.00029044,"MEAN_MOTION_DOT":1.26e-6,"MEAN_MOTION_DDOT":0},{"OBJECT_NAME":"ONEWEB-0425","OBJECT_ID":"2022-012G","EPOCH":"2025-10-16T03:29:22.591104","MEAN_MOTION":13.10369149,"ECCENTRICITY":0.0001496,"INCLINATION":87.875,"RA_OF_ASC_NODE":84.912,"ARG_OF_PERICENTER":81.3887,"MEAN_ANOMALY":278.741,"EPHEMERIS_TYPE":0,"CLASSIFICATION_TYPE":"U","NORAD_CAT_ID":51628,"ELEMENT_SET_NO":999,"REV_AT_EPOCH":17736,"BSTAR":-0.0011101,"MEAN_MOTION_DOT":-3.75e-6,"MEAN_MOTION_DDOT":0},{"OBJECT_NAME":"ONEWEB-0428","OBJECT_ID":"2022-012H","EPOCH":"2025-10-16T03:00:43.352928","MEAN_MOTION":13.10370335,"ECCENTRICITY":0.0001629,"INCLINATION":87.8751,"RA_OF_ASC_NODE":84.937,"ARG_OF_PERICENTER":99.536,"MEAN_ANOMALY":260.5951,"EPHEMERIS_TYPE":0,"CLASSIFICATION_TYPE":"U","NORAD_CAT_ID":51629,"ELEMENT_SET_NO":999,"REV_AT_EPOCH":17732,"BSTAR":0.0016798,"MEAN_MOTION_DOT":5.99e-6,"MEAN_MOTION_DDOT":0},{"OBJECT_NAME":"ONEWEB-0431","OBJECT_ID":"2022-012J","EPOCH":"2025-10-15T17:07:42.160224","MEAN_MOTION":13.10376767,"ECCENTRICITY":0.00021501,"INCLINATION":87.8763,"RA_OF_ASC_NODE":84.9939,"ARG_OF_PERICENTER":105.7175,"MEAN_ANOMALY":254.419,"EPHEMERIS_TYPE":0,"CLASSIFICATION_TYPE":"U","NORAD_CAT_ID":51630,"ELEMENT_SET_NO":999,"REV_AT_EPOCH":17732,"BSTAR":-0.00039590344,"MEAN_MOTION_DOT":-1.26e-6,"MEAN_MOTION_DDOT":0},{"OBJECT_NAME":"ONEWEB-0434","OBJECT_ID":"2022-012K","EPOCH":"2025-10-16T03:34:09.011424","MEAN_MOTION":13.10369443,"ECCENTRICITY":0.0001391,"INCLINATION":87.8755,"RA_OF_ASC_NODE":84.9475,"ARG_OF_PERICENTER":70.3224,"MEAN_ANOMALY":289.8053,"EPHEMERIS_TYPE":0,"CLASSIFICATION_TYPE":"U","NORAD_CAT_ID":51631,"ELEMENT_SET_NO":999,"REV_AT_EPOCH":17736,"BSTAR":-0.0014292,"MEAN_MOTION_DOT":-4.86e-6,"MEAN_MOTION_DDOT":0},{"OBJECT_NAME":"ONEWEB-0435","OBJECT_ID":"2022-012L","EPOCH":"2025-10-16T00:06:11.137248","MEAN_MOTION":13.10373032,"ECCENTRICITY":0.0001488,"INCLINATION":87.8751,"RA_OF_ASC_NODE":84.9672,"ARG_OF_PERICENTER":107.1655,"MEAN_ANOMALY":252.9636,"EPHEMERIS_TYPE":0,"CLASSIFICATION_TYPE":"U","NORAD_CAT_ID":51632,"ELEMENT_SET_NO":999,"REV_AT_EPOCH":17733,"BSTAR":-0.0013427,"MEAN_MOTION_DOT":-4.56e-6,"MEAN_MOTION_DDOT":0},{"OBJECT_NAME":"ONEWEB-0436","OBJECT_ID":"2022-012M","EPOCH":"2025-10-15T18:34:07.742208","MEAN_MOTION":13.17649566,"ECCENTRICITY":0.00017282,"INCLINATION":87.9102,"RA_OF_ASC_NODE":54.4368,"ARG_OF_PERICENTER":106.4852,"MEAN_ANOMALY":253.6469,"EPHEMERIS_TYPE":0,"CLASSIFICATION_TYPE":"U","NORAD_CAT_ID":51633,"ELEMENT_SET_NO":999,"REV_AT_EPOCH":18149,"BSTAR":-0.0002857411,"MEAN_MOTION_DOT":-9.8e-7,"MEAN_MOTION_DDOT":0},{"OBJECT_NAME":"ONEWEB-0438","OBJECT_ID":"2022-012N","EPOCH":"2025-10-16T03:22:12.764064","MEAN_MOTION":13.10368563,"ECCENTRICITY":0.0001546,"INCLINATION":87.8748,"RA_OF_ASC_NODE":84.9406,"ARG_OF_PERICENTER":86.9819,"MEAN_ANOMALY":273.1485,"EPHEMERIS_TYPE":0,"CLASSIFICATION_TYPE":"U","NORAD_CAT_ID":51634,"ELEMENT_SET_NO":999,"REV_AT_EPOCH":17738,"BSTAR":-0.00042718,"MEAN_MOTION_DOT":-1.36e-6,"MEAN_MOTION_DDOT":0},{"OBJECT_NAME":"ONEWEB-0439","OBJECT_ID":"2022-012P","EPOCH":"2025-10-16T03:26:59.326080","MEAN_MOTION":13.10368777,"ECCENTRICITY":0.0001561,"INCLINATION":87.8751,"RA_OF_ASC_NODE":84.9288,"ARG_OF_PERICENTER":94.396,"MEAN_ANOMALY":265.7346,"EPHEMERIS_TYPE":0,"CLASSIFICATION_TYPE":"U","NORAD_CAT_ID":51635,"ELEMENT_SET_NO":999,"REV_AT_EPOCH":17736,"BSTAR":-0.00093313,"MEAN_MOTION_DOT":-3.13e-6,"MEAN_MOTION_DDOT":0},{"OBJECT_NAME":"ONEWEB-0442","OBJECT_ID":"2022-012Q","EPOCH":"2025-10-16T01:40:33.018240","MEAN_MOTION":13.17647513,"ECCENTRICITY":0.0001912,"INCLINATION":87.9096,"RA_OF_ASC_NODE":54.4302,"ARG_OF_PERICENTER":78.1581,"MEAN_ANOMALY":281.9765,"EPHEMERIS_TYPE":0,"CLASSIFICATION_TYPE":"U","NORAD_CAT_ID":51636,"ELEMENT_SET_NO":999,"REV_AT_EPOCH":18152,"BSTAR":-0.0010114,"MEAN_MOTION_DOT":-3.8e-6,"MEAN_MOTION_DDOT":0},{"OBJECT_NAME":"ONEWEB-0443","OBJECT_ID":"2022-012R","EPOCH":"2025-10-16T02:08:30.431904","MEAN_MOTION":13.17647062,"ECCENTRICITY":0.0001413,"INCLINATION":87.9095,"RA_OF_ASC_NODE":54.4328,"ARG_OF_PERICENTER":92.0387,"MEAN_ANOMALY":268.0906,"EPHEMERIS_TYPE":0,"CLASSIFICATION_TYPE":"U","NORAD_CAT_ID":51637,"ELEMENT_SET_NO":999,"REV_AT_EPOCH":18157,"BSTAR":-0.00023725,"MEAN_MOTION_DOT":-7.9e-7,"MEAN_MOTION_DDOT":0},{"OBJECT_NAME":"ONEWEB-0444","OBJECT_ID":"2022-012S","EPOCH":"2025-10-16T03:12:37.906848","MEAN_MOTION":13.10367357,"ECCENTRICITY":0.0001582,"INCLINATION":87.8749,"RA_OF_ASC_NODE":84.93,"ARG_OF_PERICENTER":94.9306,"MEAN_ANOMALY":265.2002,"EPHEMERIS_TYPE":0,"CLASSIFICATION_TYPE":"U","NORAD_CAT_ID":51638,"ELEMENT_SET_NO":999,"REV_AT_EPOCH":17737,"BSTAR":0.00063557,"MEAN_MOTION_DOT":2.35e-6,"MEAN_MOTION_DDOT":0},{"OBJECT_NAME":"ONEWEB-0445","OBJECT_ID":"2022-012T","EPOCH":"2025-10-16T03:43:41.934144","MEAN_MOTION":13.1037033,"ECCENTRICITY":0.0001772,"INCLINATION":87.8767,"RA_OF_ASC_NODE":84.8841,"ARG_OF_PERICENTER":89.4326,"MEAN_ANOMALY":270.7005,"EPHEMERIS_TYPE":0,"CLASSIFICATION_TYPE":"U","NORAD_CAT_ID":51639,"ELEMENT_SET_NO":999,"REV_AT_EPOCH":17738,"BSTAR":-0.0017877,"MEAN_MOTION_DOT":-6.11e-6,"MEAN_MOTION_DDOT":0}]
